{
  "type": "FeatureCollection",
  "features": [
    {
      "type": "Feature",
      "properties": {
        "norad_id": 45344,
        "name": "BEIDOU-3 G2 (C60)",
        "group": "gnss",
        "lat": -0.30536349443297345,
        "lon": 36.464256247177644,
        "alt_km": 35784.26755232848,
        "timestamp": "2025-12-13T15:35:12.350715+00:00",
        "meta_object_name": "BEIDOU-3 G2 (C60)",
        "meta_object_id": "2020-017A",
        "meta_epoch": "2025-12-13T00:07:48.326880",
        "meta_mean_motion": 1.00272992,
        "meta_eccentricity": 0.00044507,
        "meta_inclination": 2.4979,
        "meta_ra_of_asc_node": 43.859,
        "meta_arg_of_pericenter": 267.4975,
        "meta_mean_anomaly": 212.5692,
        "meta_ephemeris_type": 0,
        "meta_classification_type": "U",
        "meta_norad_cat_id": 45344,
        "meta_element_set_no": 999,
        "meta_rev_at_epoch": 2139,
        "meta_bstar": 0,
        "meta_mean_motion_dot": -1.29e-06,
        "meta_mean_motion_ddot": 0,
        "tle_line1": "1 45344U 20017A   25347.00542045 -.00000129  00000+0  00000+0 0  9992",
        "tle_line2": "2 45344   2.4979  43.8590 0004450 267.4975 212.5692  1.00272992 21399"
      },
      "geometry": {
        "type": "Point",
        "coordinates": [
          36.464256247177644,
          -0.30536349443297345
        ]
      }
    },
    {
      "type": "Feature",
      "properties": {
        "norad_id": 45358,
        "name": "COSMOS 2545 (760)",
        "group": "gnss",
        "lat": -11.76452866616601,
        "lon": 144.63834268770714,
        "alt_km": 19114.917806160964,
        "timestamp": "2025-12-13T15:35:12.350726+00:00",
        "meta_object_name": "COSMOS 2545 (760)",
        "meta_object_id": "2020-018A",
        "meta_epoch": "2025-12-10T13:58:04.872576",
        "meta_mean_motion": 2.13102273,
        "meta_eccentricity": 0.00118432,
        "meta_inclination": 64.471,
        "meta_ra_of_asc_node": 319.0455,
        "meta_arg_of_pericenter": 248.8319,
        "meta_mean_anomaly": 111.0396,
        "meta_ephemeris_type": 0,
        "meta_classification_type": "U",
        "meta_norad_cat_id": 45358,
        "meta_element_set_no": 999,
        "meta_rev_at_epoch": 4464,
        "meta_bstar": 0,
        "meta_mean_motion_dot": -5.2e-07,
        "meta_mean_motion_ddot": 0,
        "tle_line1": "1 45358U 20018A   25344.58200084 -.00000052  00000+0  00000+0 0  9997",
        "tle_line2": "2 45358  64.4710 319.0455 0011843 248.8319 111.0396  2.13102273 44648"
      },
      "geometry": {
        "type": "Point",
        "coordinates": [
          144.63834268770714,
          -11.76452866616601
        ]
      }
    },
    {
      "type": "Feature",
      "properties": {
        "norad_id": 45807,
        "name": "BEIDOU-3 G3 (C61)",
        "group": "gnss",
        "lat": 0.03581367939096167,
        "lon": 66.99050632666018,
        "alt_km": 35770.70338227172,
        "timestamp": "2025-12-13T15:35:12.350737+00:00",
        "meta_object_name": "BEIDOU-3 G3 (C61)",
        "meta_object_id": "2020-040A",
        "meta_epoch": "2025-12-08T17:33:17.532288",
        "meta_mean_motion": 1.00275813,
        "meta_eccentricity": 0.00060306,
        "meta_inclination": 1.9816,
        "meta_ra_of_asc_node": 66.5886,
        "meta_arg_of_pericenter": 306.262,
        "meta_mean_anomaly": 78.7159,
        "meta_ephemeris_type": 0,
        "meta_classification_type": "U",
        "meta_norad_cat_id": 45807,
        "meta_element_set_no": 999,
        "meta_rev_at_epoch": 2016,
        "meta_bstar": 0,
        "meta_mean_motion_dot": -3.52e-06,
        "meta_mean_motion_ddot": 0,
        "tle_line1": "1 45807U 20040A   25342.73145292 -.00000352  00000+0  00000+0 0  9998",
        "tle_line2": "2 45807   1.9816  66.5886 0006030 306.2620  78.7159  1.00275813 20161"
      },
      "geometry": {
        "type": "Point",
        "coordinates": [
          66.99050632666018,
          0.03581367939096167
        ]
      }
    },
    {
      "type": "Feature",
      "properties": {
        "norad_id": 45854,
        "name": "GPS BIII-3  (PRN 23)",
        "group": "gnss",
        "lat": -54.71552273589789,
        "lon": -32.82087575716994,
        "alt_km": 20155.123009095645,
        "timestamp": "2025-12-13T15:35:12.350749+00:00",
        "meta_object_name": "GPS BIII-3  (PRN 23)",
        "meta_object_id": "2020-041A",
        "meta_epoch": "2025-12-11T05:23:02.925024",
        "meta_mean_motion": 2.00561914,
        "meta_eccentricity": 0.006046,
        "meta_inclination": 56.5461,
        "meta_ra_of_asc_node": 36.2442,
        "meta_arg_of_pericenter": 203.3747,
        "meta_mean_anomaly": 126.9066,
        "meta_ephemeris_type": 0,
        "meta_classification_type": "U",
        "meta_norad_cat_id": 45854,
        "meta_element_set_no": 999,
        "meta_rev_at_epoch": 4026,
        "meta_bstar": 0,
        "meta_mean_motion_dot": -9.4e-07,
        "meta_mean_motion_ddot": 0,
        "tle_line1": "1 45854U 20041A   25345.22433941 -.00000094  00000+0  00000+0 0  9992",
        "tle_line2": "2 45854  56.5461  36.2442 0060460 203.3747 126.9066  2.00561914 40268"
      },
      "geometry": {
        "type": "Point",
        "coordinates": [
          -32.82087575716994,
          -54.71552273589789
        ]
      }
    },
    {
      "type": "Feature",
      "properties": {
        "norad_id": 46114,
        "name": "GALAXY 30 (WAAS/PRN 135)",
        "group": "gnss",
        "lat": -0.010164761748114518,
        "lon": -168.64357172398553,
        "alt_km": 35782.78956482828,
        "timestamp": "2025-12-13T15:35:12.350760+00:00",
        "meta_object_name": "GALAXY 30 (WAAS/PRN 135)",
        "meta_object_id": "2020-056C",
        "meta_epoch": "2025-12-12T23:09:31.409568",
        "meta_mean_motion": 1.0027306,
        "meta_eccentricity": 0.00021877,
        "meta_inclination": 0.0021,
        "meta_ra_of_asc_node": 351.2248,
        "meta_arg_of_pericenter": 271.9897,
        "meta_mean_anomaly": 41.0751,
        "meta_ephemeris_type": 0,
        "meta_classification_type": "U",
        "meta_norad_cat_id": 46114,
        "meta_element_set_no": 999,
        "meta_rev_at_epoch": 1942,
        "meta_bstar": 0,
        "meta_mean_motion_dot": 4.9e-07,
        "meta_mean_motion_ddot": 0,
        "tle_line1": "1 46114U 20056C   25346.96494687  .00000049  00000+0  00000+0 0  9993",
        "tle_line2": "2 46114   0.0021 351.2248 0002187 271.9897  41.0751  1.00273060 19420"
      },
      "geometry": {
        "type": "Point",
        "coordinates": [
          -168.64357172398553,
          -0.010164761748114518
        ]
      }
    },
    {
      "type": "Feature",
      "properties": {
        "norad_id": 46805,
        "name": "COSMOS 2547 (705K)",
        "group": "gnss",
        "lat": 42.89001190296119,
        "lon": -135.1365573475282,
        "alt_km": 19141.426995419057,
        "timestamp": "2025-12-13T15:35:12.350771+00:00",
        "meta_object_name": "COSMOS 2547 (705K)",
        "meta_object_id": "2020-075A",
        "meta_epoch": "2025-12-08T21:25:56.196192",
        "meta_mean_motion": 2.13099854,
        "meta_eccentricity": 0.00063847,
        "meta_inclination": 64.5958,
        "meta_ra_of_asc_node": 198.8249,
        "meta_arg_of_pericenter": 229.7163,
        "meta_mean_anomaly": 130.3027,
        "meta_ephemeris_type": 0,
        "meta_classification_type": "U",
        "meta_norad_cat_id": 46805,
        "meta_element_set_no": 999,
        "meta_rev_at_epoch": 3985,
        "meta_bstar": 0,
        "meta_mean_motion_dot": 4.5e-07,
        "meta_mean_motion_ddot": 0,
        "tle_line1": "1 46805U 20075A   25342.89301153  .00000045  00000+0  00000+0 0  9990",
        "tle_line2": "2 46805  64.5958 198.8249 0006384 229.7163 130.3027  2.13099854 39856"
      },
      "geometry": {
        "type": "Point",
        "coordinates": [
          -135.1365573475282,
          42.89001190296119
        ]
      }
    },
    {
      "type": "Feature",
      "properties": {
        "norad_id": 46826,
        "name": "GPS BIII-4  (PRN 14)",
        "group": "gnss",
        "lat": -50.63285074342995,
        "lon": 100.56723165147653,
        "alt_km": 20074.85216853578,
        "timestamp": "2025-12-13T15:35:12.350784+00:00",
        "meta_object_name": "GPS BIII-4  (PRN 14)",
        "meta_object_id": "2020-078A",
        "meta_epoch": "2025-12-13T00:53:29.004000",
        "meta_mean_motion": 2.00566814,
        "meta_eccentricity": 0.00646719,
        "meta_inclination": 54.015,
        "meta_ra_of_asc_node": 218.3288,
        "meta_arg_of_pericenter": 203.3817,
        "meta_mean_anomaly": 326.8,
        "meta_ephemeris_type": 0,
        "meta_classification_type": "U",
        "meta_norad_cat_id": 46826,
        "meta_element_set_no": 999,
        "meta_rev_at_epoch": 3777,
        "meta_bstar": 0,
        "meta_mean_motion_dot": 2.7e-07,
        "meta_mean_motion_ddot": 0,
        "tle_line1": "1 46826U 20078A   25347.03714125  .00000027  00000+0  00000+0 0  9994",
        "tle_line2": "2 46826  54.0150 218.3288 0064671 203.3817 326.8000  2.00566814 37778"
      },
      "geometry": {
        "type": "Point",
        "coordinates": [
          100.56723165147653,
          -50.63285074342995
        ]
      }
    }
  ]
}